ONEWEB-0236             
1 48797U 21045AG  26185.74508355  .00000002  00000+0 -29246-4 0  9995
2 48797  87.8992 255.7082 0002138  97.2620 262.8754 13.15548487246562
ONEWEB-0248             
1 48798U 21045AH  26185.90987122 -.00000129  00000+0 -37782-3 0  9991
2 48798  87.9006 255.6607 0002219 111.8755 248.2612 13.15549172246747
ONEWEB-0225             
1 48799U 21045AJ  26185.47571129  .00000071  00000+0  15485-3 0  9990
2 48799  87.8997 255.7547 0001936 115.9599 244.1731 13.15547964246694
ONEWEB-0215             
1 48800U 21045AK  26185.44560324 -.00000020  00000+0 -88225-4 0  9994
2 48800  87.9005 255.7440 0002100 118.2120 241.9223 13.15549512246568
ONEWEB-0216             
1 48801U 21045AL  26185.91145547 -.00000131  00000+0 -38113-3 0  9996
2 48801  87.9002 255.6657 0002020  97.8759 262.2601 13.15547794246630
ONEWEB-0239             
1 48802U 21045AM  26185.91620823 -.00000144  00000+0 -41610-3 0  9992
2 48802  87.8991 255.6694 0002396 118.9867 241.1503 13.15547672246675
ONEWEB-0249             
1 48967U 21060A   26186.06415215 -.00000030  00000+0 -11239-3 0  9993
2 48967  87.9085 225.2276 0002136  97.8591 262.2782 13.16596103241966
ONEWEB-0250             
1 48968U 21060B   26185.81605043  .00000034  00000+0  47889-4 0  9999
2 48968  87.9082 222.9758 0003119  96.4595 263.6897 13.25834558242551
ONEWEB-0252             
1 48970U 21060D   26185.63906790  .00000127  00000+0  29731-3 0  9993
2 48970  87.9083 225.3041 0001817  94.0221 266.1118 13.16595010241954
ONEWEB-0253             
1 48971U 21060E   26185.85597709  .00000113  00000+0  26145-3 0  9995
2 48971  87.9083 225.2667 0002162  97.3639 262.7738 13.16594665241912
ONEWEB-0254             
1 48972U 21060F   26185.63748227  .00000124  00000+0  29011-3 0  9992
2 48972  87.9085 225.3078 0002164 103.4994 256.6378 13.16594006241884
ONEWEB-0255             
1 48973U 21060G   26185.82747335  .00000014  00000+0  19375-5 0  9995
2 48973  87.9089 225.2764 0002084 100.7812 259.3553 13.16593907241985
ONEWEB-0256             
1 48974U 21060H   26185.85360051  .00000104  00000+0  23932-3 0  9997
2 48974  87.9074 225.2746 0001981  92.8513 267.2845 13.16594800241956
ONEWEB-0257             
1 48975U 21060J   26185.81005602 -.00000047  00000+0 -15566-3 0  9994
2 48975  87.9083 225.2711 0001996  98.0593 262.0764 13.16593437241904
ONEWEB-0258             
1 48976U 21060K   26186.03963281  .00000069  00000+0  14562-3 0  9993
2 48976  87.9081 225.2376 0002109  95.8950 264.2422 13.16593561241946
ONEWEB-0259             
1 48977U 21060L   26186.03329843  .00000078  00000+0  17162-3 0  9993
2 48977  87.9084 225.2377 0002195  98.8135 261.3244 13.16593659241975
ONEWEB-0260             
1 48978U 21060M   26186.02458438  .00000084  00000+0  18664-3 0  9991
2 48978  87.9079 225.2403 0001716  88.8807 271.2520 13.16594983241959
ONEWEB-0261             
1 48979U 21060N   26186.07050808  .00000043  00000+0  79787-4 0  9995
2 48979  87.9078 225.2319 0001907 103.7896 256.3447 13.16592990242018
ONEWEB-0262             
1 48980U 21060P   26186.05071331  .00000040  00000+0  70891-4 0  9993
2 48980  87.9086 225.2220 0002292 100.1894 259.9496 13.16593472241970
ONEWEB-0263             
1 48981U 21060Q   26185.85438582  .00000062  00000+0  12760-3 0  9990
2 48981  87.9084 225.2728 0001985 105.0860 255.0491 13.16593087241915
ONEWEB-0264             
1 48982U 21060R   26186.04357522  .00000081  00000+0  17760-3 0  9993
2 48982  87.9078 225.2378 0001836  97.5793 262.5547 13.16596185241945
ONEWEB-0266             
1 48984U 21060T   26186.06496350  .00000040  00000+0  70085-4 0  9995
2 48984  87.9084 225.2247 0002137  93.6765 266.4611 13.16595341241937
ONEWEB-0267             
1 48985U 21060U   26185.84805636 -.00000093  00000+0 -27805-3 0  9993
2 48985  87.9082 225.2645 0001919 100.3535 259.7813 13.16593523241913
ONEWEB-0268             
1 48986U 21060V   26186.04437837  .00000021  00000+0  20774-4 0  9999
2 48986  87.9085 225.2347 0001974  92.7544 267.3813 13.16593307242209
ONEWEB-0269             
1 48987U 21060W   26185.79739038  .00000005  00000+0 -21326-4 0  9996
2 48987  87.9076 225.2848 0002050  89.5767 270.5598 13.16593392241943
ONEWEB-0270             
1 48988U 21060X   26186.04279927  .00000076  00000+0  16467-3 0  9998
2 48988  87.9084 225.2371 0002181 104.8628 255.2745 13.16593707242019
ONEWEB-0271             
1 48989U 21060Y   26185.80214336  .00000018  00000+0  12185-4 0  9995
2 48989  87.9085 225.2744 0002007 102.0351 258.1006 13.16593651241980
ONEWEB-0272             
1 48990U 21060Z   26186.05230510 -.00000058  00000+0 -18658-3 0  9993
2 48990  87.9080 225.2358 0001722  94.8655 265.2672 13.16595323241960
ONEWEB-0273             
1 48991U 21060AA  26186.07446080  .00000102  00000+0  23220-3 0  9996
2 48991  87.9079 225.2317 0002051  99.3237 260.8126 13.16593837241947
ONEWEB-0274             
1 48992U 21060AB  26186.02379560  .00000103  00000+0  23575-3 0  9994
2 48992  87.9074 225.2425 0001762  91.6783 268.4549 13.16594866241971
