OBJECT_NAME,OBJECT_ID,EPOCH,MEAN_MOTION,ECCENTRICITY,INCLINATION,RA_OF_ASC_NODE,ARG_OF_PERICENTER,MEAN_ANOMALY,EPHEMERIS_TYPE,CLASSIFICATION_TYPE,NORAD_CAT_ID,ELEMENT_SET_NO,REV_AT_EPOCH,BSTAR,MEAN_MOTION_DOT,MEAN_MOTION_DDOT
ONEWEB-0236,2021-045AG,2026-07-04T17:52:55.218720,13.15548487,.00021383,87.8992,255.7082,97.2620,262.8754,0,U,48797,999,24656,-.2924608E-4,.2E-7,0
ONEWEB-0248,2021-045AH,2026-07-04T21:50:12.873408,13.15549172,.00022194,87.9006,255.6607,111.8755,248.2612,0,U,48798,999,24674,-.37781626E-3,-.129E-5,0
ONEWEB-0225,2021-045AJ,2026-07-04T11:25:01.455456,13.15547964,.00019363,87.8997,255.7547,115.9599,244.1731,0,U,48799,999,24669,.15484779E-3,.71E-6,0
ONEWEB-0215,2021-045AK,2026-07-04T10:41:40.119936,13.15549512,.00021009,87.9005,255.7440,118.2120,241.9223,0,U,48800,999,24656,-.88225135E-4,-.2E-6,0
ONEWEB-0216,2021-045AL,2026-07-04T21:52:29.752608,13.15547794,.00020209,87.9002,255.6657,97.8759,262.2601,0,U,48801,999,24663,-.38113322E-3,-.131E-5,0
ONEWEB-0239,2021-045AM,2026-07-04T21:59:20.391072,13.15547672,.00023964,87.8991,255.6694,118.9867,241.1503,0,U,48802,999,24667,-.41610494E-3,-.144E-5,0
ONEWEB-0249,2021-060A,2026-07-05T01:32:22.745760,13.16596103,.0002136,87.9085,225.2276,97.8591,262.2782,0,U,48967,999,24196,-.11239129E-3,-.3E-6,0
ONEWEB-0250,2021-060B,2026-07-04T19:35:06.757152,13.25834558,.00031196,87.9082,222.9758,96.4595,263.6897,0,U,48968,999,24255,.47888739E-4,.34E-6,0
ONEWEB-0252,2021-060D,2026-07-04T15:20:15.466560,13.16595010,.00018172,87.9083,225.3041,94.0221,266.1118,0,U,48970,999,24195,.29730732E-3,.127E-5,0
ONEWEB-0253,2021-060E,2026-07-04T20:32:36.420576,13.16594665,.00021621,87.9083,225.2667,97.3639,262.7738,0,U,48971,999,24191,.2614501E-3,.113E-5,0
ONEWEB-0254,2021-060F,2026-07-04T15:17:58.468128,13.16594006,.00021642,87.9085,225.3078,103.4994,256.6378,0,U,48972,999,24188,.29011462E-3,.124E-5,0
ONEWEB-0255,2021-060G,2026-07-04T19:51:33.697440,13.16593907,.00020843,87.9089,225.2764,100.7812,259.3553,0,U,48973,999,24198,.1937531E-5,.14E-6,0
ONEWEB-0256,2021-060H,2026-07-04T20:29:11.084064,13.16594800,.00019814,87.9074,225.2746,92.8513,267.2845,0,U,48974,999,24195,.23931981E-3,.104E-5,0
ONEWEB-0257,2021-060J,2026-07-04T19:26:28.840128,13.16593437,.00019968,87.9083,225.2711,98.0593,262.0764,0,U,48975,999,24190,-.1556587E-3,-.47E-6,0
ONEWEB-0258,2021-060K,2026-07-05T00:57:04.274784,13.16593561,.0002109,87.9081,225.2376,95.8950,264.2422,0,U,48976,999,24194,.14562075E-3,.69E-6,0
ONEWEB-0259,2021-060L,2026-07-05T00:47:56.984352,13.16593659,.00021955,87.9084,225.2377,98.8135,261.3244,0,U,48977,999,24197,.17161658E-3,.78E-6,0
ONEWEB-0260,2021-060M,2026-07-05T00:35:24.090432,13.16594983,.0001716,87.9079,225.2403,88.8807,271.2520,0,U,48978,999,24195,.18664079E-3,.84E-6,0
ONEWEB-0261,2021-060N,2026-07-05T01:41:31.898112,13.16592990,.00019074,87.9078,225.2319,103.7896,256.3447,0,U,48979,999,24201,.79786651E-4,.43E-6,0
ONEWEB-0262,2021-060P,2026-07-05T01:13:01.629984,13.16593472,.00022929,87.9086,225.2220,100.1894,259.9496,0,U,48980,999,24197,.70890695E-4,.4E-6,0
ONEWEB-0263,2021-060Q,2026-07-04T20:30:18.934848,13.16593087,.00019859,87.9084,225.2728,105.0860,255.0491,0,U,48981,999,24191,.12760139E-3,.62E-6,0
ONEWEB-0264,2021-060R,2026-07-05T01:02:44.899008,13.16596185,.00018368,87.9078,225.2378,97.5793,262.5547,0,U,48982,999,24194,.17760399E-3,.81E-6,0
ONEWEB-0266,2021-060T,2026-07-05T01:33:32.846400,13.16595341,.00021373,87.9084,225.2247,93.6765,266.4611,0,U,48984,999,24193,.70085345E-4,.4E-6,0
ONEWEB-0267,2021-060U,2026-07-04T20:21:12.069504,13.16593523,.00019196,87.9082,225.2645,100.3535,259.7813,0,U,48985,999,24191,-.27805483E-3,-.93E-6,0
ONEWEB-0268,2021-060V,2026-07-05T01:03:54.291168,13.16593307,.00019749,87.9085,225.2347,92.7544,267.3813,0,U,48986,999,24220,.20774238E-4,.21E-6,0
ONEWEB-0269,2021-060W,2026-07-04T19:08:14.528832,13.16593392,.00020508,87.9076,225.2848,89.5767,270.5598,0,U,48987,999,24194,-.21326183E-4,.5E-7,0
ONEWEB-0270,2021-060X,2026-07-05T01:01:37.856928,13.16593707,.00021814,87.9084,225.2371,104.8628,255.2745,0,U,48988,999,24201,.16467482E-3,.76E-6,0
ONEWEB-0271,2021-060Y,2026-07-04T19:15:05.186304,13.16593651,.00020079,87.9085,225.2744,102.0351,258.1006,0,U,48989,999,24198,.12184832E-4,.18E-6,0
ONEWEB-0272,2021-060Z,2026-07-05T01:15:19.160640,13.16595323,.00017226,87.9080,225.2358,94.8655,265.2672,0,U,48990,999,24196,-.18658338E-3,-.58E-6,0
ONEWEB-0273,2021-060AA,2026-07-05T01:47:13.413120,13.16593837,.00020515,87.9079,225.2317,99.3237,260.8126,0,U,48991,999,24194,.23220222E-3,.102E-5,0
ONEWEB-0274,2021-060AB,2026-07-05T00:34:15.939840,13.16594866,.00017629,87.9074,225.2425,91.6783,268.4549,0,U,48992,999,24197,.23575287E-3,.103E-5,0
